start=new Date('2022-09-13T00:00:00.000Z').valueOf();
sats=[{"EPHEMERIS_TYPE":"0","OBJECT_ID":"2022-053S","REF_FRAME":"TEME","DECAY_DATE":null,"TLE_LINE2":"2 52672  53.2161 112.3165 0001857  54.2624 265.6544 15.08826816  1306","SEMIMAJOR_AXIS":"6917.921","CENTER_NAME":"EARTH","REV_AT_EPOCH":"130","PERIAPSIS":"538.501","ELEMENT_SET_NO":"999","SITE":"AFETR","BSTAR":"0.00065673000000","LAUNCH_DATE":"2022-05-18","OBJECT_TYPE":"PAYLOAD","APOAPSIS":"541.070","NORAD_CAT_ID":"52672","FILE":"3570509","TLE_LINE1":"1 52672U 22053S   22255.91667824  .00010176  00000-0  65673-3 0  9998","RCS_SIZE":"LARGE","MEAN_ANOMALY":"265.6544","ARG_OF_PERICENTER":"54.2624","MEAN_MOTION_DOT":"0.00010176","PERIOD":"95.438","RA_OF_ASC_NODE":"112.3165","EPOCH":"2022-09-12T22:00:00.999936","COUNTRY_CODE":"US","OBJECT_NAME":"STARLINK-4073","MEAN_MOTION":"15.08826816","ECCENTRICITY":"0.00018570","CLASSIFICATION_TYPE":"U","MEAN_ELEMENT_THEORY":"SGP4","INCLINATION":"53.2161","GP_ID":"212434347","TIME_SYSTEM":"UTC","MEAN_MOTION_DDOT":"0.0000000000000"},{"RCS_SIZE":"LARGE","TLE_LINE1":"1 52673U 22053T   22255.91667824  .00002524  00000-0  17661-3 0  9991","NORAD_CAT_ID":"52673","FILE":"3570324","APOAPSIS":"540.976","OBJECT_TYPE":"PAYLOAD","LAUNCH_DATE":"2022-05-18","BSTAR":"0.00017661000000","SITE":"AFETR","ELEMENT_SET_NO":"999","PERIAPSIS":"538.536","CENTER_NAME":"EARTH","REV_AT_EPOCH":"1832","SEMIMAJOR_AXIS":"6917.891","TLE_LINE2":"2 52673  53.2166 112.3009 0001763  52.6145   7.2970 15.08836541 18324","DECAY_DATE":null,"REF_FRAME":"TEME","OBJECT_ID":"2022-053T","EPHEMERIS_TYPE":"0","MEAN_MOTION_DDOT":"0.0000000000000","TIME_SYSTEM":"UTC","GP_ID":"212404614","INCLINATION":"53.2166","MEAN_ELEMENT_THEORY":"SGP4","CLASSIFICATION_TYPE":"U","ECCENTRICITY":"0.00017630","MEAN_MOTION":"15.08836541","OBJECT_NAME":"STARLINK-3976","COUNTRY_CODE":"US","EPOCH":"2022-09-12T22:00:00.999936","RA_OF_ASC_NODE":"112.3009","PERIOD":"95.438","MEAN_MOTION_DOT":"0.00002524","ARG_OF_PERICENTER":"52.6145","MEAN_ANOMALY":"7.2970"},{"ECCENTRICITY":"0.00018980","MEAN_MOTION":"15.08820090","CLASSIFICATION_TYPE":"U","COUNTRY_CODE":"US","OBJECT_NAME":"STARLINK-3936","TIME_SYSTEM":"UTC","MEAN_MOTION_DDOT":"0.0000000000000","MEAN_ELEMENT_THEORY":"SGP4","INCLINATION":"53.2156","GP_ID":"212434728","PERIOD":"95.439","MEAN_MOTION_DOT":"0.00007735","MEAN_ANOMALY":"284.7127","ARG_OF_PERICENTER":"55.2126","RA_OF_ASC_NODE":"112.3195","EPOCH":"2022-09-12T22:00:00.999936","APOAPSIS":"541.119","BSTAR":"0.00050382000000","OBJECT_TYPE":"PAYLOAD","LAUNCH_DATE":"2022-05-18","RCS_SIZE":"LARGE","TLE_LINE1":"1 52674U 22053U   22255.91667824  .00007735  00000-0  50382-3 0  9998","NORAD_CAT_ID":"52674","FILE":"3570509","REF_FRAME":"TEME","DECAY_DATE":null,"TLE_LINE2":"2 52674  53.2156 112.3195 0001898  55.2126 284.7127 15.08820090  1305","OBJECT_ID":"2022-053U","EPHEMERIS_TYPE":"0","ELEMENT_SET_NO":"999","SITE":"AFETR","PERIAPSIS":"538.493","REV_AT_EPOCH":"130","CENTER_NAME":"EARTH","SEMIMAJOR_AXIS":"6917.941"},{"PERIOD":"95.438","MEAN_MOTION_DOT":"0.00012339","ARG_OF_PERICENTER":"54.5327","MEAN_ANOMALY":"20.3857","EPOCH":"2022-09-12T22:00:00.999936","RA_OF_ASC_NODE":"102.3084","CLASSIFICATION_TYPE":"U","ECCENTRICITY":"0.00017660","MEAN_MOTION":"15.08836426","OBJECT_NAME":"STARLINK-3934","COUNTRY_CODE":"US","MEAN_MOTION_DDOT":"0.0000000000000","TIME_SYSTEM":"UTC","GP_ID":"212404631","MEAN_ELEMENT_THEORY":"SGP4","INCLINATION":"53.2133","TLE_LINE2":"2 52675  53.2133 102.3084 0001766  54.5327  20.3857 15.08836426 18443","DECAY_DATE":null,"REF_FRAME":"TEME","EPHEMERIS_TYPE":"0","OBJECT_ID":"2022-053V","SITE":"AFETR","ELEMENT_SET_NO":"999","PERIAPSIS":"538.535","REV_AT_EPOCH":"1844","CENTER_NAME":"EARTH","SEMIMAJOR_AXIS":"6917.891","APOAPSIS":"540.978","OBJECT_TYPE":"PAYLOAD","LAUNCH_DATE":"2022-05-18","BSTAR":"0.00079206000000","RCS_SIZE":"LARGE","TLE_LINE1":"1 52675U 22053V   22255.91667824  .00012339  00000-0  79206-3 0  9991","NORAD_CAT_ID":"52675","FILE":"3570325"},{"EPHEMERIS_TYPE":"0","OBJECT_ID":"2022-053W","REF_FRAME":"TEME","DECAY_DATE":null,"TLE_LINE2":"2 52676  53.2173 112.3069 0001826  57.9476 341.9785 15.08836150 18324","CENTER_NAME":"EARTH","REV_AT_EPOCH":"1832","SEMIMAJOR_AXIS":"6917.892","ELEMENT_SET_NO":"999","SITE":"AFETR","PERIAPSIS":"538.494","BSTAR":"0.00024665000000","OBJECT_TYPE":"PAYLOAD","LAUNCH_DATE":"2022-05-18","APOAPSIS":"541.020","FILE":"3570326","NORAD_CAT_ID":"52676","RCS_SIZE":"LARGE","TLE_LINE1":"1 52676U 22053W   22255.91667824  .00003639  00000-0  24665-3 0  9994","MEAN_ANOMALY":"341.9785","ARG_OF_PERICENTER":"57.9476","PERIOD":"95.438","MEAN_MOTION_DOT":"0.00003639","RA_OF_ASC_NODE":"112.3069","EPOCH":"2022-09-12T22:00:00.999936","COUNTRY_CODE":"US","OBJECT_NAME":"STARLINK-4006","ECCENTRICITY":"0.00018260","MEAN_MOTION":"15.08836150","CLASSIFICATION_TYPE":"U","MEAN_ELEMENT_THEORY":"SGP4","INCLINATION":"53.2173","GP_ID":"212405144","TIME_SYSTEM":"UTC","MEAN_MOTION_DDOT":"0.0000000000000"},{"EPHEMERIS_TYPE":"0","OBJECT_ID":"2022-053X","DECAY_DATE":null,"REF_FRAME":"TEME","TLE_LINE2":"2 52677  53.2140 102.3077 0001663  57.0552  57.8656 15.08817685  1304","REV_AT_EPOCH":"130","CENTER_NAME":"EARTH","SEMIMAJOR_AXIS":"6917.949","ELEMENT_SET_NO":"999","SITE":"AFETR","PERIAPSIS":"538.663","BSTAR":"0.00105110000000","LAUNCH_DATE":"2022-05-18","OBJECT_TYPE":"PAYLOAD","APOAPSIS":"540.964","FILE":"3570509","NORAD_CAT_ID":"52677","RCS_SIZE":"MEDIUM","TLE_LINE1":"1 52677U 22053X   22255.91667824  .00016470  00000-0  10511-2 0  9996","MEAN_ANOMALY":"57.8656","ARG_OF_PERICENTER":"57.0552","PERIOD":"95.439","MEAN_MOTION_DOT":"0.00016470","RA_OF_ASC_NODE":"102.3077","EPOCH":"2022-09-12T22:00:00.999936","COUNTRY_CODE":"US","OBJECT_NAME":"STARLINK-4028","ECCENTRICITY":"0.00016630","MEAN_MOTION":"15.08817685","CLASSIFICATION_TYPE":"U","INCLINATION":"53.2140","MEAN_ELEMENT_THEORY":"SGP4","GP_ID":"212433649","TIME_SYSTEM":"UTC","MEAN_MOTION_DDOT":"0.0000000000000"},{"APOAPSIS":"541.120","LAUNCH_DATE":"2022-05-18","OBJECT_TYPE":"PAYLOAD","BSTAR":"-0.00167140000000","RCS_SIZE":"LARGE","TLE_LINE1":"1 52678U 22053Y   22255.91667824 -.00026802  00000-0 -16714-2 0  9990","NORAD_CAT_ID":"52678","FILE":"3570509","TLE_LINE2":"2 52678  53.2147 102.3056 0002054  55.3316  14.3920 15.08855238  1301","DECAY_DATE":null,"REF_FRAME":"TEME","EPHEMERIS_TYPE":"0","OBJECT_ID":"2022-053Y","ELEMENT_SET_NO":"999","SITE":"AFETR","PERIAPSIS":"538.278","CENTER_NAME":"EARTH","REV_AT_EPOCH":"130","SEMIMAJOR_AXIS":"6917.834","CLASSIFICATION_TYPE":"U","ECCENTRICITY":"0.00020540","MEAN_MOTION":"15.08855238","OBJECT_NAME":"STARLINK-4074","COUNTRY_CODE":"US","MEAN_MOTION_DDOT":"0.0000000000000","TIME_SYSTEM":"UTC","GP_ID":"212434507","MEAN_ELEMENT_THEORY":"SGP4","INCLINATION":"53.2147","PERIOD":"95.437","MEAN_MOTION_DOT":"-0.00026802","ARG_OF_PERICENTER":"55.3316","MEAN_ANOMALY":"14.3920","EPOCH":"2022-09-12T22:00:00.999936","RA_OF_ASC_NODE":"102.3056"},{"ELEMENT_SET_NO":"999","SITE":"AFETR","PERIAPSIS":"538.573","CENTER_NAME":"EARTH","REV_AT_EPOCH":"1845","SEMIMAJOR_AXIS":"6917.841","TLE_LINE2":"2 52679  53.2153 102.3070 0001638  59.7524 115.1795 15.08852919 18458","REF_FRAME":"TEME","DECAY_DATE":null,"OBJECT_ID":"2022-053Z","EPHEMERIS_TYPE":"0","RCS_SIZE":"LARGE","TLE_LINE1":"1 52679U 22053Z   22255.91667824 -.00019249  00000-0 -11941-2 0  9995","NORAD_CAT_ID":"52679","FILE":"3570327","APOAPSIS":"540.839","LAUNCH_DATE":"2022-05-18","OBJECT_TYPE":"PAYLOAD","BSTAR":"-0.00119410000000","EPOCH":"2022-09-12T22:00:00.999936","RA_OF_ASC_NODE":"102.3070","PERIOD":"95.437","MEAN_MOTION_DOT":"-0.00019249","ARG_OF_PERICENTER":"59.7524","MEAN_ANOMALY":"115.1795","MEAN_MOTION_DDOT":"0.0000000000000","TIME_SYSTEM":"UTC","GP_ID":"212405155","INCLINATION":"53.2153","MEAN_ELEMENT_THEORY":"SGP4","CLASSIFICATION_TYPE":"U","ECCENTRICITY":"0.00016380","MEAN_MOTION":"15.08852919","OBJECT_NAME":"STARLINK-4031","COUNTRY_CODE":"US"},{"ECCENTRICITY":"0.00016350","MEAN_MOTION":"15.08836713","CLASSIFICATION_TYPE":"U","COUNTRY_CODE":"US","OBJECT_NAME":"STARLINK-3774","TIME_SYSTEM":"UTC","MEAN_MOTION_DDOT":"0.0000000000000","INCLINATION":"53.2135","MEAN_ELEMENT_THEORY":"SGP4","GP_ID":"212405159","PERIOD":"95.438","MEAN_MOTION_DOT":"0.00005792","MEAN_ANOMALY":"36.9415","ARG_OF_PERICENTER":"57.9822","RA_OF_ASC_NODE":"102.3086","EPOCH":"2022-09-12T22:00:00.999936","APOAPSIS":"540.887","BSTAR":"0.00038176000000","LAUNCH_DATE":"2022-05-18","OBJECT_TYPE":"PAYLOAD","RCS_SIZE":"LARGE","TLE_LINE1":"1 52680U 22053AA  22255.91667824  .00005792  00000-0  38176-3 0  9993","NORAD_CAT_ID":"52680","FILE":"3570327","REF_FRAME":"TEME","DECAY_DATE":null,"TLE_LINE2":"2 52680  53.2135 102.3086 0001635  57.9822  36.9415 15.08836713 18458","EPHEMERIS_TYPE":"0","OBJECT_ID":"2022-053AA","SITE":"AFETR","ELEMENT_SET_NO":"999","PERIAPSIS":"538.624","REV_AT_EPOCH":"1845","CENTER_NAME":"EARTH","SEMIMAJOR_AXIS":"6917.890"},{"MEAN_MOTION":"15.08827975","ECCENTRICITY":"0.00019630","CLASSIFICATION_TYPE":"U","COUNTRY_CODE":"US","OBJECT_NAME":"STARLINK-4068","TIME_SYSTEM":"UTC","MEAN_MOTION_DDOT":"0.0000000000000","MEAN_ELEMENT_THEORY":"SGP4","INCLINATION":"53.2143","GP_ID":"212405238","MEAN_MOTION_DOT":"0.00018454","PERIOD":"95.438","MEAN_ANOMALY":"147.7521","ARG_OF_PERICENTER":"47.1729","RA_OF_ASC_NODE":"102.3028","EPOCH":"2022-09-12T22:00:00.999936","APOAPSIS":"541.140","BSTAR":"0.00117490000000","OBJECT_TYPE":"PAYLOAD","LAUNCH_DATE":"2022-05-18","TLE_LINE1":"1 52681U 22053AB  22255.91667824  .00018454  00000-0  11749-2 0  9999","RCS_SIZE":"LARGE","NORAD_CAT_ID":"52681","FILE":"3570329","REF_FRAME":"TEME","DECAY_DATE":null,"TLE_LINE2":"2 52681  53.2143 102.3028 0001963  47.1729 147.7521 15.08827975 18454","OBJECT_ID":"2022-053AB","EPHEMERIS_TYPE":"0","PERIAPSIS":"538.424","ELEMENT_SET_NO":"999","SITE":"AFETR","SEMIMAJOR_AXIS":"6917.917","CENTER_NAME":"EARTH","REV_AT_EPOCH":"1845"}];
